{
  "type": "FeatureCollection",
  "features": [
    {
      "type": "Feature",
      "properties": {
        "norad_id": 45526,
        "name": "FENGYUN 1C DEB",
        "group": "fengyun-1c-debris",
        "lat": 19.57605409974237,
        "lon": 58.95717402178561,
        "alt_km": 843.3954374669238,
        "timestamp": "2025-12-15T22:44:29.218691+00:00",
        "meta_object_name": "FENGYUN 1C DEB",
        "meta_object_id": "1999-025EYR",
        "meta_epoch": "2025-12-15T04:07:24.630240",
        "meta_mean_motion": 14.25961841,
        "meta_eccentricity": 0.00544794,
        "meta_inclination": 98.7632,
        "meta_ra_of_asc_node": 61.326,
        "meta_arg_of_pericenter": 215.4741,
        "meta_mean_anomaly": 144.2811,
        "meta_ephemeris_type": 0,
        "meta_classification_type": "U",
        "meta_norad_cat_id": 45526,
        "meta_element_set_no": 999,
        "meta_rev_at_epoch": 43411,
        "meta_bstar": 0.001254581,
        "meta_mean_motion_dot": 2.995e-05,
        "meta_mean_motion_ddot": 0,
        "tle_line1": "1 45526U 99025EYR 25349.17181285  .00002995  00000+0  12546-2 0  9997",
        "tle_line2": "2 45526  98.7632  61.3260 0054479 215.4741 144.2811 14.25961841434115"
      },
      "geometry": {
        "type": "Point",
        "coordinates": [
          58.95717402178561,
          19.57605409974237
        ]
      }
    },
    {
      "type": "Feature",
      "properties": {
        "norad_id": 45527,
        "name": "FENGYUN 1C DEB",
        "group": "fengyun-1c-debris",
        "lat": 9.802608024723545,
        "lon": 55.02962120299288,
        "alt_km": 847.1979014834487,
        "timestamp": "2025-12-15T22:44:29.218702+00:00",
        "meta_object_name": "FENGYUN 1C DEB",
        "meta_object_id": "1999-025EYS",
        "meta_epoch": "2025-12-14T02:51:55.958688",
        "meta_mean_motion": 14.24517728,
        "meta_eccentricity": 0.00553627,
        "meta_inclination": 98.741,
        "meta_ra_of_asc_node": 54.7339,
        "meta_arg_of_pericenter": 221.8013,
        "meta_mean_anomaly": 137.8931,
        "meta_ephemeris_type": 0,
        "meta_classification_type": "U",
        "meta_norad_cat_id": 45527,
        "meta_element_set_no": 999,
        "meta_rev_at_epoch": 39599,
        "meta_bstar": 0.0019189974,
        "meta_mean_motion_dot": 4.479e-05,
        "meta_mean_motion_ddot": 0,
        "tle_line1": "1 45527U 99025EYS 25348.11939767  .00004479  00000+0  19190-2 0  9998",
        "tle_line2": "2 45527  98.7410  54.7339 0055362 221.8013 137.8931 14.24517728395991"
      },
      "geometry": {
        "type": "Point",
        "coordinates": [
          55.02962120299288,
          9.802608024723545
        ]
      }
    },
    {
      "type": "Feature",
      "properties": {
        "norad_id": 46440,
        "name": "FENGYUN 1C DEB",
        "group": "fengyun-1c-debris",
        "lat": -42.55881056960679,
        "lon": 24.833417445420537,
        "alt_km": 955.3952409665353,
        "timestamp": "2025-12-15T22:44:29.218712+00:00",
        "meta_object_name": "FENGYUN 1C DEB",
        "meta_object_id": "1999-025EYV",
        "meta_epoch": "2025-12-13T07:01:11.080704",
        "meta_mean_motion": 14.20320542,
        "meta_eccentricity": 0.01762461,
        "meta_inclination": 98.5934,
        "meta_ra_of_asc_node": 14.2712,
        "meta_arg_of_pericenter": 133.6484,
        "meta_mean_anomaly": 295.5393,
        "meta_ephemeris_type": 0,
        "meta_classification_type": "U",
        "meta_norad_cat_id": 46440,
        "meta_element_set_no": 999,
        "meta_rev_at_epoch": 62377,
        "meta_bstar": 0.00044388464,
        "meta_mean_motion_dot": 1.068e-05,
        "meta_mean_motion_ddot": 0,
        "tle_line1": "1 46440U 99025EYV 25347.29248936  .00001068  00000+0  44388-3 0  9991",
        "tle_line2": "2 46440  98.5934  14.2712 0176246 133.6484 295.5393 14.20320542623774"
      },
      "geometry": {
        "type": "Point",
        "coordinates": [
          24.833417445420537,
          -42.55881056960679
        ]
      }
    },
    {
      "type": "Feature",
      "properties": {
        "norad_id": 46443,
        "name": "FENGYUN 1C DEB",
        "group": "fengyun-1c-debris",
        "lat": 44.84526935742627,
        "lon": 47.62055447252555,
        "alt_km": 815.6686345911266,
        "timestamp": "2025-12-15T22:44:29.218722+00:00",
        "meta_object_name": "FENGYUN 1C DEB",
        "meta_object_id": "1999-025EYY",
        "meta_epoch": "2025-12-13T09:33:26.080128",
        "meta_mean_motion": 14.10847077,
        "meta_eccentricity": 0.00965317,
        "meta_inclination": 99.2144,
        "meta_ra_of_asc_node": 54.298,
        "meta_arg_of_pericenter": 354.1442,
        "meta_mean_anomaly": 69.3679,
        "meta_ephemeris_type": 0,
        "meta_classification_type": "U",
        "meta_norad_cat_id": 46443,
        "meta_element_set_no": 999,
        "meta_rev_at_epoch": 59605,
        "meta_bstar": 0.0025123577,
        "meta_mean_motion_dot": 4.658e-05,
        "meta_mean_motion_ddot": 0,
        "tle_line1": "1 46443U 99025EYY 25347.39821852  .00004658  00000+0  25124-2 0  9993",
        "tle_line2": "2 46443  99.2144  54.2980 0096531 354.1442  69.3679 14.10847077596051"
      },
      "geometry": {
        "type": "Point",
        "coordinates": [
          47.62055447252555,
          44.84526935742627
        ]
      }
    },
    {
      "type": "Feature",
      "properties": {
        "norad_id": 46444,
        "name": "FENGYUN 1C DEB",
        "group": "fengyun-1c-debris",
        "lat": -80.58362213057285,
        "lon": 56.433545325985165,
        "alt_km": 849.2638165724757,
        "timestamp": "2025-12-15T22:44:29.218732+00:00",
        "meta_object_name": "FENGYUN 1C DEB",
        "meta_object_id": "1999-025EYZ",
        "meta_epoch": "2025-12-13T05:48:44.254368",
        "meta_mean_motion": 14.27157872,
        "meta_eccentricity": 0.00844476,
        "meta_inclination": 98.5132,
        "meta_ra_of_asc_node": 349.2232,
        "meta_arg_of_pericenter": 149.4207,
        "meta_mean_anomaly": 272.1575,
        "meta_ephemeris_type": 0,
        "meta_classification_type": "U",
        "meta_norad_cat_id": 46444,
        "meta_element_set_no": 999,
        "meta_rev_at_epoch": 62589,
        "meta_bstar": 0.00074566944,
        "meta_mean_motion_dot": 1.848e-05,
        "meta_mean_motion_ddot": 0,
        "tle_line1": "1 46444U 99025EYZ 25347.24217887  .00001848  00000+0  74567-3 0  9999",
        "tle_line2": "2 46444  98.5132 349.2232 0084447 149.4207 272.1575 14.27157872625894"
      },
      "geometry": {
        "type": "Point",
        "coordinates": [
          56.433545325985165,
          -80.58362213057285
        ]
      }
    },
    {
      "type": "Feature",
      "properties": {
        "norad_id": 46449,
        "name": "FENGYUN 1C DEB",
        "group": "fengyun-1c-debris",
        "lat": -23.211349020393882,
        "lon": 27.99839839933643,
        "alt_km": 792.8209573313788,
        "timestamp": "2025-12-15T22:44:29.218742+00:00",
        "meta_object_name": "FENGYUN 1C DEB",
        "meta_object_id": "1999-025EZE",
        "meta_epoch": "2025-11-27T19:57:02.428704",
        "meta_mean_motion": 14.19021773,
        "meta_eccentricity": 0.02029501,
        "meta_inclination": 98.6463,
        "meta_ra_of_asc_node": 6.5721,
        "meta_arg_of_pericenter": 314.0231,
        "meta_mean_anomaly": 44.4375,
        "meta_ephemeris_type": 0,
        "meta_classification_type": "U",
        "meta_norad_cat_id": 46449,
        "meta_element_set_no": 999,
        "meta_rev_at_epoch": 57425,
        "meta_bstar": 0.00050383916,
        "meta_mean_motion_dot": 1.244e-05,
        "meta_mean_motion_ddot": 0,
        "tle_line1": "1 46449U 99025EZE 25331.83127811  .00001244  00000+0  50384-3 0  9990",
        "tle_line2": "2 46449  98.6463   6.5721 0202950 314.0231  44.4375 14.19021773574253"
      },
      "geometry": {
        "type": "Point",
        "coordinates": [
          27.99839839933643,
          -23.211349020393882
        ]
      }
    },
    {
      "type": "Feature",
      "properties": {
        "norad_id": 46450,
        "name": "FENGYUN 1C DEB",
        "group": "fengyun-1c-debris",
        "lat": -45.733162686713754,
        "lon": -145.37812831338636,
        "alt_km": 904.1575872864678,
        "timestamp": "2025-12-15T22:44:29.218753+00:00",
        "meta_object_name": "FENGYUN 1C DEB",
        "meta_object_id": "1999-025EZF",
        "meta_epoch": "2025-12-13T07:39:30.370464",
        "meta_mean_motion": 14.03577892,
        "meta_eccentricity": 0.01825974,
        "meta_inclination": 98.0791,
        "meta_ra_of_asc_node": 203.905,
        "meta_arg_of_pericenter": 59.283,
        "meta_mean_anomaly": 302.6187,
        "meta_ephemeris_type": 0,
        "meta_classification_type": "U",
        "meta_norad_cat_id": 46450,
        "meta_element_set_no": 999,
        "meta_rev_at_epoch": 61127,
        "meta_bstar": 0.0033356689,
        "meta_mean_motion_dot": 6.035e-05,
        "meta_mean_motion_ddot": 0,
        "tle_line1": "1 46450U 99025EZF 25347.31910151  .00006035  00000+0  33357-2 0  9992",
        "tle_line2": "2 46450  98.0791 203.9050 0182597  59.2830 302.6187 14.03577892611273"
      },
      "geometry": {
        "type": "Point",
        "coordinates": [
          -145.37812831338636,
          -45.733162686713754
        ]
      }
    }
  ]
}